RAVAN                   
1 41849U 16067B   19019.84779338 -.00000043  00000-0  15365-5 0  9998
2 41849  97.9205 116.8074 0008812 156.3439 203.8189 14.98059907119562
CELTEE 1                
1 41850U 16067C   19019.20907729  .00000729  00000-0  68753-4 0  9995
2 41850  97.9185 115.1943 0009614 155.6764 204.4913 14.96931300119412
OPTICUBE 04             
1 41851U 16067D   19019.19782926  .00000308  00000-0  32209-4 0  9994
2 41851  97.9174 115.0304 0009575 158.7110 201.4512 14.96748236119401
AEROCUBE 8D             
1 41852U 16067E   19019.18962554  .00000144  00000-0  17978-4 0  9995
2 41852  97.9185 114.8502 0010259 160.1344 200.0279 14.96621534119381
AEROCUBE 8C             
1 41853U 16067F   19019.81070430  .00000728  00000-0  69223-4 0  9997
2 41853  97.9191 115.4264 0010746 157.4675 202.7020 14.96590425119475
PROMETHEUS 2-1          
1 41854U 16067G   19019.19567188  .00000462  00000-0  45698-4 0  9995
2 41854  97.9191 114.8774 0011041 161.0456 199.1178 14.96756214119385
PROMETHEUS 2-3          
1 41855U 16067H   19019.80006254  .00000653  00000-0  62357-4 0  9999
2 41855  97.9195 115.4994 0011283 159.0573 201.1112 14.96758833119477
INS-1B                  
1 41954U 17008G   19019.17722404  .00000890  00000-0  40180-4 0  9990
2 41954  97.4205  86.0706 0008154 322.8608  37.2064 15.23551394106889
BGUSAT                  
1 41999U 17008BD  19019.49340447  .00001449  00000-0  60125-4 0  9999
2 41999  97.4263  88.1591 0007392 339.6335  20.4607 15.25466220106391
DIDO-2                  
1 42000U 17008BE  19018.83868469  .00000651  00000-0  30142-4 0  9999
2 42000  97.4220  86.2539 0007975 345.7529  14.3482 15.23611006106237
PEASSS                  
1 42015U 17008BV  19018.76262894  .00000785  00000-0  34841-4 0  9995
2 42015  97.4224  86.9127 0006054 356.6447   3.4749 15.24500763106754
AL-FARABI 1             
1 42016U 17008BW  19019.73782684  .00000998  00000-0  42837-4 0  9998
2 42016  97.4233  88.2600 0005786 352.8935   7.2219 15.25040741107040
NAYIF-1 (EO-88)         
1 42017U 17008BX  19019.13785352  .00001072  00000-0  45770-4 0  9991
2 42017  97.4232  87.6738 0005865 355.4320   4.6863 15.25068952106971
HAVELSAT                
1 42700U 98067LH  19019.23274441  .00120474  16860-4  31109-3 0  9990
2 42700  51.6241 315.5949 0003029  98.1835 261.9516 15.94951616 96178
CXBN-2                  
1 42704U 98067LM  19019.19967642  .00133845  18085-4  35800-3 0  9990
2 42704  51.6286 317.7114 0002572 123.9774 236.1478 15.94244124 96068
PHOENIX                 
1 42706U 98067LP  19019.28187924  .00039982  00000-0  19631-3 0  9994
2 42706  51.6286 325.8977 0000783  93.7461 266.3631 15.81792895 95958
X-CUBESAT               
1 42707U 98067LQ  19019.84918717  .00308591  54212-4  44190-3 0  9990
2 42707  51.6212 308.2840 0004083 155.5265 204.5941 16.04923041 96222
QBEE50-LTU-OC           
1 42708U 98067LR  19019.82967848  .00132774  18056-4  34169-3 0  9997
2 42708  51.6247 313.6079 0002875 126.1173 234.0101 15.94966580 96111
ALTAIR PATHFINDER       
1 42711U 98067LS  19019.48636293  .00017216  00000-0  13543-3 0  9992
2 42711  51.6347 343.2133 0001841 294.7525  65.3282 15.71600467 95401
SHARC                   
1 42712U 98067LT  19019.89062899  .00049570  00000-0  27828-3 0  9992
2 42712  51.6328 338.4399 0001371  58.8688 301.2448 15.78757827 95741
ZA-AEROSAT              
1 42713U 98067LU  19019.32453832  .00037879  00000-0  20085-3 0  9999
2 42713  51.6344 330.7462 0000206  36.5076 323.5939 15.80142651 95553
CSUNSAT 1               
1 42715U 98067LW  19019.86842608  .00045066  00000-0  21362-3 0  9999
2 42715  51.6328 325.3643 0000547 339.4702  20.6278 15.82494975 95672
SPACECUBE               
1 42717U 98067LY  19019.25569198  .00120553  16802-4  32291-3 0  9993
2 42717  51.6200 317.1648 0003163 104.0279 256.1080 15.94266737 95098
NJUST-1                 
1 42722U 98067MB  19019.73159716  .00032113  00000-0  19242-3 0  9997
2 42722  51.6399 332.6351 0002624  10.0690  58.4017 15.77503489 94631
LILACSAT-1              
1 42725U 98067ME  19019.72919777  .00080699  00000-0  29536-3 0  9999
2 42725  51.6358 321.9756 0002574  59.4600  13.3819 15.87649258 94682
NSIGHT-1                
1 42726U 98067MF  19019.34097622  .00007497  00000-0  77819-4 0  9997
2 42726  51.6389 354.4164 0004456 334.6075  25.4701 15.65796458 94221
SNUSAT-1                
1 42727U 98067MG  19019.68696227  .00074182  00000-0  28015-3 0  9999
2 42727  51.6301 322.4982 0001053   5.5588 354.5428 15.87046532 94634
POLYITAN-2-SAU          
1 42732U 98067MM  19019.27932721  .00291967  48973-4  44810-3 0  9990
2 42732  51.6247 312.8304 0003261 158.3283 201.7867 16.03798660 94615
SNUSAT-1B               
1 42733U 98067MN  19019.25889753  .00090223  00000-0  28519-3 0  9990
2 42733  51.6270 321.0937 0000414  81.7021 278.4031 15.90533656 94501
BEEAGLESAT              
1 42736U 98067MR  19019.85374702  .00046252  00000-0  20739-3 0  9991
2 42736  51.6309 324.4382 0002790  15.4342 344.6746 15.83665213 94570
UCLSAT                  
1 42765U 17036A   19019.10073733  .00000870  00000-0  40627-4 0  9993
2 42765  97.3736  80.1823 0012709  45.4655 314.7617 15.22365283 87552
LITUANICASAT-2          
1 42768U 17036D   19019.72998227  .00001368  00000-0  62434-4 0  9991
2 42768  97.3762  80.3542 0016079  32.7334 327.4895 15.22189382 87497
AALTO-1                 
1 42775U 17036L   19019.75125842  .00000549  00000-0  27739-4 0  9996
2 42775  97.3724  79.8969 0014908  32.3144 327.9002 15.21084179 87417
URSA MAIOR              
1 42776U 17036M   19019.19788415  .00000606  00000-0  30210-4 0  9998
2 42776  97.3732  79.4578 0014739  34.2512 325.9671 15.21198729 87339
COMPASS 2               
1 42777U 17036N   19019.10634458  .00001149  00000-0  52648-4 0  9999
2 42777  97.3763  80.1692 0013540  37.1695 323.0476 15.22398302 87357
DIAMOND RED             
1 42783U 17036U   19018.89806238  .00000709  00000-0  34139-4 0  9994
2 42783  97.3736  79.7007 0013371  46.2862 313.9479 15.21885949 87311
PEGASUS                 
1 42784U 17036V   19018.83841506  .00000768  00000-0  36447-4 0  9995
2 42784  97.3740  79.7930 0013274  46.2573 313.9760 15.22140510 87315
DIAMOND GREEN           
1 42785U 17036W   19018.83109625  .00000682  00000-0  32930-4 0  9993
2 42785  97.3739  79.6547 0013287  47.0943 313.1406 15.21885559 87295
DIAMOND BLUE            
1 42786U 17036X   19019.15885991  .00000684  00000-0  33022-4 0  9992
2 42786  97.3737  79.9752 0013103  46.3564 313.8756 15.21886845 87343
NUDTSAT                 
1 42787U 17036Y   19019.11992314  .00001399  00000-0  62487-4 0  9998
2 42787  97.3769  80.5208 0013547  38.2823 321.9369 15.22938456 87227
SUCHAI                  
1 42788U 17036Z   19019.40906891  .00000911  00000-0  42272-4 0  9995
2 42788  97.3742  80.5575 0012804  44.2084 316.0173 15.22492029 87484
SKCUBE                  
1 42789U 17036AA  19018.69338525  .00000853  00000-0  39834-4 0  9994
2 42789  97.3740  79.8248 0012726  46.6394 313.5900 15.22418255 87292
VZLUSAT-1               
1 42790U 17036AB  19018.91011799  .00001194  00000-0  53749-4 0  9992
2 42790  97.3750  80.3186 0012261  45.8420 314.3822 15.22942738 87344
ROBUSTA-1B              
1 42792U 17036AD  19019.82330852  .00000868  00000-0  40309-4 0  9994
2 42792  97.3738  81.0435 0012222  43.9792 316.2415 15.22579532 87487
CICERO 6                
1 42793U 17036AE  19019.84959491  .00000618  00000-0  29797-4 0  9994
2 42793  97.3725  80.9629 0011494  45.6158 314.6018 15.22292690 87558
D-SAT                   
1 42794U 17036AF  19019.81995233  .00000291  00000-0  31059-4 0  9997
2 42794  97.5626  70.9343 0125302 281.1820  77.5335 14.91005085 86001
TOKI                    
1 42820U 98067MU  19019.32098164  .00047757  00000-0  23047-3 0  9998
2 42820  51.6316 331.4284 0000611  93.1032 267.0040 15.82084203 87895
MAZAALAI (NUMSAT-1)     
1 42822U 98067MW  19019.35790436  .00045529  00000-0  22929-3 0  9997
2 42822  51.6333 332.4568 0000604  32.9876 327.1164 15.81182982 87865
BRAC ONNESHA            
1 42823U 98067MX  19019.13421572  .00050396  00000-0  24807-3 0  9991
2 42823  51.6305 333.2131 0001321 317.9655  42.1246 15.81633741 87834
NIGERIAEDUSAT-1         
1 42824U 98067MY  19019.14608348  .00047377  00000-0  24098-3 0  9998
2 42824  51.6343 334.1020 0001780 335.4669  24.6248 15.80948960 87819
CORVUS BC2              
1 42846U 17042X   19019.78131654  .00000149  00000-0  20028-4 0  9993
2 42846  97.5819 279.6059 0009296 185.8994 174.2117 14.91911079 82660
CORVUS BC1              
1 42847U 17042Y   19019.20806483  .00000187  00000-0  23785-4 0  9995
2 42847  97.5819 279.1365 0008925 187.2810 172.8281 14.92011058 82572
SILU-1 (SILKROAD 1)     
1 42903U 17021F   19019.52748750  .00061349  95159-5  22491-3 0  9995
2 42903  42.7738  84.8582 0015272  42.6341  89.1419 15.88015636 84112
MIRATA                  
1 43015U 17073C   19019.40371451  .00000819  00000-0  70443-4 0  9996
2 43015  97.7169 306.5226 0255229 287.5601  69.7877 14.78650829 63083
MAKERSAT 0              
1 43016U 17073D   19018.78878405  .00000595  00000-0  52659-4 0  9998
2 43016  97.7200 306.1116 0257037 289.7352  67.6303 14.78500714 62986
ASTERIA                 
1 43020U 98067NH  19019.41095247  .00013044  00000-0  13647-3 0  9997
2 43020  51.6424   3.9961 0001344 275.4986  84.5856 15.64817077 66288
DELLINGR (RBLE)         
1 43021U 98067NJ  19019.79427493  .00005520  00000-0  71708-4 0  9994
2 43021  51.6399   7.9842 0001434 256.1168 103.9666 15.60544628 66268
OSIRIS-3U               
1 43027U 98067NL  19019.82238771  .00115031  00000-0  43036-3 0  9994
2 43027  51.6352 340.1833 0002172 110.0460 250.0778 15.87066741 66518
AEROCUBE 7B             
1 43042U 17071F   19019.60519301  .00002473  00000-0  70511-4 0  9998
2 43042  51.6393  66.1418 0004681 337.5242  22.5537 15.40192667 62949
